{
  "type": "FeatureCollection",
  "features": [
    {
      "type": "Feature",
      "id": 1,
      "properties": {
        "id": 1,
        "name": "Ward 1 - Vidhyadhar Nagar",
        "code": "JP-WARD-001",
        "zone": "Vidhyadhar Nagar",
        "parshad_name": "Smt Dhapa Devi (श्रीमती धापा देवी)",
        "parshad_phone": "7014541502",
        "party": "INC",
        "population": 38500,
        "area_sq_km": 4.5,
        "description": "Vidhyadhar Nagar Sector 1-3, Central Market & Transport hub."
      },
      "geometry": {
        "type": "Polygon",
        "coordinates": [
          [
            [75.7600, 26.9500],
            [75.7850, 26.9500],
            [75.7850, 26.9750],
            [75.7600, 26.9750],
            [75.7600, 26.9500]
          ]
        ]
      }
    },
    {
      "type": "Feature",
      "id": 15,
      "properties": {
        "id": 15,
        "name": "Ward 15 - Vidhyadhar Central",
        "code": "JP-WARD-015",
        "zone": "Vidhyadhar Nagar",
        "parshad_name": "Dr Meenakshi Sharma (डॉ मीनाक्षी शर्मा)",
        "parshad_phone": "7610920000",
        "party": "BJP",
        "population": 42000,
        "area_sq_km": 3.8,
        "description": "Central Vidhyadhar Nagar, National Highway Corridor & Public Parks."
      },
      "geometry": {
        "type": "Polygon",
        "coordinates": [
          [
            [75.7850, 26.9500],
            [75.8100, 26.9500],
            [75.8100, 26.9750],
            [75.7850, 26.9750],
            [75.7850, 26.9500]
          ]
        ]
      }
    },
    {
      "type": "Feature",
      "id": 43,
      "properties": {
        "id": 43,
        "name": "Ward 43 - Jhotwara North",
        "code": "JP-WARD-043",
        "zone": "Jhotwara",
        "parshad_name": "Smt Archana Sharma (श्रीमती अर्चना शर्मा)",
        "parshad_phone": "8209837858",
        "party": "BJP",
        "population": 46000,
        "area_sq_km": 6.2,
        "description": "Jhotwara Industrial Area, Khatipura Junction & Rail Line Overbridge."
      },
      "geometry": {
        "type": "Polygon",
        "coordinates": [
          [
            [75.7200, 26.9300],
            [75.7600, 26.9300],
            [75.7600, 26.9600],
            [75.7200, 26.9600],
            [75.7200, 26.9300]
          ]
        ]
      }
    },
    {
      "type": "Feature",
      "id": 60,
      "properties": {
        "id": 60,
        "name": "Ward 60 - Jhotwara Central",
        "code": "JP-WARD-060",
        "zone": "Jhotwara",
        "parshad_name": "Smt Sheel Dhabai (श्रीमती शील धाबाई)",
        "parshad_phone": "9414062780",
        "party": "BJP",
        "population": 51000,
        "area_sq_km": 5.4,
        "description": "Khatipura Road, Vaishali Extension & Community Health Center zone."
      },
      "geometry": {
        "type": "Polygon",
        "coordinates": [
          [
            [75.7300, 26.9000],
            [75.7600, 26.9000],
            [75.7600, 26.9300],
            [75.7300, 26.9300],
            [75.7300, 26.9000]
          ]
        ]
      }
    },
    {
      "type": "Feature",
      "id": 70,
      "properties": {
        "id": 70,
        "name": "Ward 70 - Sanganer Town",
        "code": "JP-WARD-070",
        "zone": "Sanganer",
        "parshad_name": "Shri Ramavtar Gupta (श्री रामावतार गुप्ता)",
        "parshad_phone": "9672391222",
        "party": "BJP",
        "population": 48000,
        "area_sq_km": 7.0,
        "description": "Sanganer Heritage Textile Block, Tonk Road & Airport Link Road."
      },
      "geometry": {
        "type": "Polygon",
        "coordinates": [
          [
            [75.7600, 26.8000],
            [75.8000, 26.8000],
            [75.8000, 26.8500],
            [75.7600, 26.8500],
            [75.7600, 26.8000]
          ]
        ]
      }
    },
    {
      "type": "Feature",
      "id": 87,
      "properties": {
        "id": 87,
        "name": "Ward 87 - Sanganer Greater",
        "code": "JP-WARD-087",
        "zone": "Sanganer",
        "parshad_name": "Smt Saumya Gurjar (श्रीमती सौम्या गुर्जर - Mayor)",
        "parshad_phone": "8764880001",
        "party": "BJP",
        "population": 55000,
        "area_sq_km": 6.8,
        "description": "Nagar Nigam Greater Headquarters, Lalkothi, Tonk Road corridor."
      },
      "geometry": {
        "type": "Polygon",
        "coordinates": [
          [
            [75.8000, 26.8200],
            [75.8400, 26.8200],
            [75.8400, 26.8600],
            [75.8000, 26.8600],
            [75.8000, 26.8200]
          ]
        ]
      }
    },
    {
      "type": "Feature",
      "id": 104,
      "properties": {
        "id": 104,
        "name": "Ward 104 - Bagru Expressway",
        "code": "JP-WARD-104",
        "zone": "Bagru",
        "parshad_name": "Shri Arun Sharma (श्री अरुण शर्मा)",
        "parshad_phone": "9079639676",
        "party": "BJP",
        "population": 34000,
        "area_sq_km": 8.1,
        "description": "Ajmer Road Expressway, Mahindra SEZ entrance & Suburban residential."
      },
      "geometry": {
        "type": "Polygon",
        "coordinates": [
          [
            [75.6800, 26.8500],
            [75.7300, 26.8500],
            [75.7300, 26.9000],
            [75.6800, 26.9000],
            [75.6800, 26.8500]
          ]
        ]
      }
    },
    {
      "type": "Feature",
      "id": 125,
      "properties": {
        "id": 125,
        "name": "Ward 125 - Malviya Nagar Central",
        "code": "JP-WARD-125",
        "zone": "Malviya Nagar",
        "parshad_name": "Shri Ramprasad Sharma (श्री रामप्रसाद शर्मा)",
        "parshad_phone": "9413561156",
        "party": "BJP",
        "population": 49000,
        "area_sq_km": 4.1,
        "description": "Malviya Nagar Calgiri Marg, World Trade Park & Apex Circle."
      },
      "geometry": {
        "type": "Polygon",
        "coordinates": [
          [
            [75.8000, 26.8600],
            [75.8400, 26.8600],
            [75.8400, 26.8900],
            [75.8000, 26.8900],
            [75.8000, 26.8600]
          ]
        ]
      }
    },
    {
      "type": "Feature",
      "id": 142,
      "properties": {
        "id": 142,
        "name": "Ward 142 - Malviya Nagar East",
        "code": "JP-WARD-142",
        "zone": "Malviya Nagar",
        "parshad_name": "Shri Himanshu Jain (श्री हिमांशु जैन)",
        "parshad_phone": "9460067604",
        "party": "BJP",
        "population": 41000,
        "area_sq_km": 3.9,
        "description": "Jagatpura Flyover Road, Institutional Area & Fortis Hospital circle."
      },
      "geometry": {
        "type": "Polygon",
        "coordinates": [
          [
            [75.8400, 26.8500],
            [75.8800, 26.8500],
            [75.8800, 26.8900],
            [75.8400, 26.8900],
            [75.8400, 26.8500]
          ]
        ]
      }
    }
  ]
}
